{"type": "FeatureCollection", "features": [{"type": "Feature", "properties": {"ip": "199.232.133.50", "url": "https://27esimaora.corriere.it/notizie/26_luglio_28/cosa-ci-raccontano-ancora-oggi-le-donne-dell-odissea-e0ec9c6c-fcbf-4af6-923c-32b9902e1xlk.shtml"}, "geometry": {"type": "Point", "coordinates": [-71.0598, 42.3584]}}, {"type": "Feature", "properties": {"ip": "69.192.29.186", "url": "https://cdn.cxense.com/ari-ci.js"}, "geometry": {"type": "Point", "coordinates": [-74.006, 40.7143]}}, {"type": "Feature", "properties": {"ip": "99.84.160.11", "url": "https://dimages2.corriereobjects.it/files/image_330_184/files/fp/uploads/2026/08/06/6a749d5796212.r_d.361-317-5077.jpeg"}, "geometry": {"type": "Point", "coordinates": [-74.006, 40.7143]}}, {"type": "Feature", "properties": {"ip": "35.204.254.254", "url": "https://abbonamenti.corriere.it/profilo-utente/?abbonamenti=1"}, "geometry": {"type": "Point", "coordinates": [6.5667, 53.2192]}}, {"type": "Feature", "properties": {"ip": "3.171.139.54", "url": "https://www.rcsmediagroup.it/"}, "geometry": {"type": "Point", "coordinates": [-74.006, 40.7143]}}, {"type": "Feature", "properties": {"ip": "18.238.55.72", "url": "https://video.corrieredibologna.corriere.it/il-video-della-gente-che-canta-le-canzoni-di-guccini-in-via-paolo-fabbri-43-a-bologna-le-emozionanti-immagini-dalla-strada-simbolo-del-cantautore/6ef8b6e0-da96-44e5-a2c7-aa2ff4383xlk"}, "geometry": {"type": "Point", "coordinates": [-74.006, 40.7143]}}, {"type": "Feature", "properties": {"ip": "99.84.160.3", "url": "https://forumcorriere.corriere.it/supplemento-singolo/author/abaccaro/"}, "geometry": {"type": "Point", "coordinates": [-74.006, 40.7143]}}, {"type": "Feature", "properties": {"ip": "99.84.234.101", "url": "https://components2.corriereobjects.it/rcs_cor_corriere-layout/v2/assets/img/ext/favicon/touch-icon-ipad-retina.png?v=1"}, "geometry": {"type": "Point", "coordinates": [-74.006, 40.7143]}}, {"type": "Feature", "properties": {"ip": "34.141.130.52", "url": "https://raccontidivetro.corriere.it/author/lleibovitz/"}, "geometry": {"type": "Point", "coordinates": [6.5667, 53.2192]}}, {"type": "Feature", "properties": {"ip": "13.33.67.49", "url": "https://rcs.onelink.me/zYK4/gc3mwvdl"}, "geometry": {"type": "Point", "coordinates": [-74.006, 40.7143]}}, {"type": "Feature", "properties": {"ip": "199.232.134.133", "url": "https://www.iodonna.it/spettacoli/libri/"}, "geometry": {"type": "Point", "coordinates": [-71.0598, 42.3584]}}, {"type": "Feature", "properties": {"ip": "46.254.38.54", "url": "https://club.corriere.it/?intcmp=burger_menu"}, "geometry": {"type": "Point", "coordinates": [12.564, 41.9126]}}, {"type": "Feature", "properties": {"ip": "52.85.31.61", "url": "https://viaggi.corriere.it"}, "geometry": {"type": "Point", "coordinates": [-74.006, 40.7143]}}, {"type": "Feature", "properties": {"ip": "57.145.0.34", "url": "https://www.instagram.com/corriere/"}, "geometry": {"type": "Point", "coordinates": [-71.0598, 42.3584]}}, {"type": "Feature", "properties": {"ip": "34.13.214.136", "url": "https://knowhow.corriere.it/"}, "geometry": {"type": "Point", "coordinates": [6.5667, 53.2192]}}, {"type": "Feature", "properties": {"ip": "13.33.13.19", "url": "https://d1pp3br6kljy5b.cloudfront.net/v1/trovatoreImode.js?Expires=1797337725&Key-Pair-Id=K2UK6HKTG5UCXJ&Signature=EkK-ssGyGvKDQLYcM-Bt-euNxyxiQjO-1bCKHdpB96yd2MFSGvijY82RB34eAAy2XKKr6ENdQc1DtdWsMpxR-CbthK~2etKAr3ind3OJ5YAv2EhAMdoKppERt32yPkjIKA-TG1y8Y2WkrOZe7NqV59xHCiTA5Wi6QbaVFdGz6hGRn6c8nkoV1dWL99Ahz7B3vNjzd6fVRJMiUlWU4EfZIIoWSGnurVgV74FFg~MON8MuyhH5eNW1G8TcRdsckElFJ1flzEWEyX4w8wcAymrF3NPGYto~AqJw6A1fdmi2hBIUevZlJX5E8pvNVZQhzAQupI4M0fP8ajAE9l6cxGL2zw__"}, "geometry": {"type": "Point", "coordinates": [-74.006, 40.7143]}}, {"type": "Feature", "properties": {"ip": "104.17.207.5", "url": "https://cdn.jsdelivr.net/npm/swiper@12/swiper-bundle.min.css?v=1"}, "geometry": {"type": "Point", "coordinates": [-122.3971, 37.7621]}}, {"type": "Feature", "properties": {"ip": "104.19.220.32", "url": "https://sdk.mrf.io/statics"}, "geometry": {"type": "Point", "coordinates": [-122.3971, 37.7621]}}, {"type": "Feature", "properties": {"ip": "108.138.120.216", "url": "https://static.chartbeat.com/js/chartbeat_mab.js"}, "geometry": {"type": "Point", "coordinates": [-74.006, 40.7143]}}, {"type": "Feature", "properties": {"ip": "3.168.73.39", "url": "https://living.corriere.it/architettura/wim-wenders-film-su-peter-zumthor/"}, "geometry": {"type": "Point", "coordinates": [-74.006, 40.7143]}}]}