{"type": "FeatureCollection", "features": [{"type": "Feature", "properties": {"ip": "13.33.66.207", "url": "https://www.amazon.com/s?k=bath+rugs+for+bathroom&amp;rh=p_n_g-1002626413111%3A23555306011&amp;dc&amp;crid=CG1SHOUSFAOU&amp;qid=1786151148&amp;rnid=23555273011&amp;sprefix=bath+rug%2Caps%2C113&amp;ref=sr_nr_p_n_g-1002626413111_1&amp;ds=v1%3AdOJj6zd%2BmaYveaR7Jm90LxKP7y8WkoCFlX5RO2O8%2B4o"}, "geometry": {"type": "Point", "coordinates": [-74.006, 40.7143]}}, {"type": "Feature", "properties": {"ip": "199.232.133.16", "url": "https://m.media-amazon.com/images/I/81La74cwWGL._AC_UL800_QL65_.jpg"}, "geometry": {"type": "Point", "coordinates": [-71.0598, 42.3584]}}, {"type": "Feature", "properties": {"ip": "52.85.31.45", "url": "https://sponsored-ads.amazon.com/clk/?_encoding=UTF8&amp;p=eAFVj0-L00AYxqmLuoT6hx5WqLcKPRSmmUmbpKkEyb_Nxq7rtt1K7SVMMpNm3DTJZsZt6aHg3avgpxH0AwjiTb-CH0KwK-LDe3jg-b3vyyORw1_vfny_07hnXbw6d0fBaA5db9Kqoc5RQnO2CaMAYq-wR-z1SbSNTunwSNucVv5bvmVvovT5wllsjd4gsyZ1pHQVqHaRoXXh4tbUjg4t7-LEmwTTxiPpLqH8UhRloz47m3jOS_8sWHhu831NenKThJziKk7DklZxkWFBQ5ZnLKdhJJKGhFd4W-TduFg1H_MIxBnmnMVgvwP2JChR6zbNw9m0o_IIiJSuKAFxkWU0FqzIwbUCbp6BGFeEgxKzXNAKxEUuaC5amlSDDz99_fnt8xe3ef8vu7_eeqBACA1loBuapvd0pBzMpu7wwDl3OqPGU9e2nPI4ALq1s6_2Wlo7e1wU48u-9b929vLPWHvTrDtLb-Nb3nKFx1T5WJM-1FIhSj6U5fV63f3XXV6WMl7LRLah_8J2e4u5_awkYUXCMktJZYp2ynEYVyEjJmxfMWIifaAhFaH-oM0rEwEEgYpVVVMSAyQkIaCPIAJGYhBAdA1jwzAG_Z7SZiYueRtXNDHHc-Lb18dQ8X4DpFayBw&amp;v=c1&amp;r=https%3A%2F%2Fwww.amazon.com%2Fgp%2Faw%2Fd%2FB0GMBD3ZXB%3Fpd_rd_plhdr%3Dt%26hsa_cr_id%3D0%26qid%3D1786151148%26sr%3D1-10-5a5562f9-fdfd-4101-9f9d-d76aa9998432%26i%3Daps%26aref%3DQXdGBvF02E&amp;ref_=sbx__sbtcd2_asin_9_img&amp;pd_rd_w=OHMPo&amp;content-id=amzn1.sym.90f77631-9599-4fe0-95f8-a40adfe1c762%3Aamzn1.sym.90f77631-9599-4fe0-95f8-a40adfe1c762&amp;pf_rd_p=90f77631-9599-4fe0-95f8-a40adfe1c762&amp;pf_rd_r=D1MNW4X6V6YZJJGM9ZPR&amp;pd_rd_wg=UD4Pn&amp;pd_rd_r=837bd1ad-e9cb-4028-bcb0-0e13f021ce6c"}, "geometry": {"type": "Point", "coordinates": [-74.006, 40.7143]}}, {"type": "Feature", "properties": {"ip": "18.164.116.105", "url": "https://www.amazon.science"}, "geometry": {"type": "Point", "coordinates": [-74.006, 40.7143]}}, {"type": "Feature", "properties": {"ip": "44.215.133.88", "url": "https://unagi-na.amazon.com/1/events/com.amazon.eel.SponsoredProductsEventTracking.prod?qualifier=1786151148&amp;id=3297086823769268&amp;widgetName=sp_mtf&amp;adId=301374731645602&amp;eventType=1&amp;adIndex=5&"}, "geometry": {"type": "Point", "coordinates": [-77.4875, 39.0437]}}, {"type": "Feature", "properties": {"ip": "18.164.116.34", "url": "https://aax-us-east-retail-direct.amazon.com/e/is/D8A8F2B64B75DAA625F6833085AA5FF3/impb?b=JAI3bpudFCxbwsL7d3g9ShEAAAGf3uedXwEAAAH2AQBvbm9fdHhuX2JpZDcgICBvbm9fdHhuX2ltcDIgICCrMky8&amp;w=0&amp;bi=imv1c_ek8OQ5GN_VSJoSr1fQPpWbkT2jBjcCFVF9J4ZZLO7hRUAT4RwHBPGHul4To_X6svG1Kgx-FbQzvCDKjbeqFcRu0-akEMD4noVQZOP2dsEse_efqsGnPbGsvC2rdhj0z19zBeWKNua8tVvgD52RdwyC15HCE-StlITnhSI_vo5x3DG1hec-vwjfHLeBJFnU6jv7nGzZZpHERL9__W1Ks8LkjmQFzUJmMrtqV9tdQd_04imSqIlWjpUx2HH0stfFD7qfeXoDRyRrXKINzSR4vih94gAjQkP6GujS0fiwAb2RUjivou76cgOqbjErZIP363U0ilg8ESkhzS1OpUF6QX"}, "geometry": {"type": "Point", "coordinates": [-74.006, 40.7143]}}, {"type": "Feature", "properties": {"ip": "99.84.238.145", "url": "https://logistics.amazon.com/marketing?utm_source=amzn&utm_medium=footer&utm_campaign=home"}, "geometry": {"type": "Point", "coordinates": [-74.006, 40.7143]}}, {"type": "Feature", "properties": {"ip": "3.168.101.40", "url": "https://music.amazon.com?ref=nav_youraccount_cldplyr"}, "geometry": {"type": "Point", "coordinates": [-74.006, 40.7143]}}]}