{
  "type": "FeatureCollection",
  "name": "my_affective_milan",
  "metadata": {
    "title": "My Affective Milan: Everyday Places by Bicycle",
    "crs": "EPSG:4326",
    "privacy": "Residential locations are generalized to neighborhood scale and contain no addresses.",
    "purpose": "Assignment 02 personal dataset"
  },
  "features": [
    {
      "type": "Feature",
      "properties": {
        "name": "Home — relational origin",
        "category": "home_origin",
        "privacy": "approximate_location",
        "precision": "neighborhood"
      },
      "geometry": {
        "type": "Point",
        "coordinates": [
          9.2362,
          45.4792
        ]
      }
    },
    {
      "type": "Feature",
      "properties": {
        "name": "Friend's home 1",
        "category": "friends_home",
        "privacy": "approximate_location",
        "precision": "neighborhood"
      },
      "geometry": {
        "type": "Point",
        "coordinates": [
          9.2322,
          45.4689
        ]
      }
    },
    {
      "type": "Feature",
      "properties": {
        "name": "Friend's home 2",
        "category": "friends_home",
        "privacy": "approximate_location",
        "precision": "neighborhood"
      },
      "geometry": {
        "type": "Point",
        "coordinates": [
          9.2251,
          45.4652
        ]
      }
    },
    {
      "type": "Feature",
      "properties": {
        "name": "Friend's home 3",
        "category": "friends_home",
        "privacy": "approximate_location",
        "precision": "neighborhood"
      },
      "geometry": {
        "type": "Point",
        "coordinates": [
          9.2167,
          45.484
        ]
      }
    },
    {
      "type": "Feature",
      "properties": {
        "name": "Friend's home 4",
        "category": "friends_home",
        "privacy": "approximate_location",
        "precision": "neighborhood"
      },
      "geometry": {
        "type": "Point",
        "coordinates": [
          9.2232,
          45.4704
        ]
      }
    },
    {
      "type": "Feature",
      "properties": {
        "name": "Friend's home 5",
        "category": "friends_home",
        "privacy": "approximate_location",
        "precision": "neighborhood"
      },
      "geometry": {
        "type": "Point",
        "coordinates": [
          9.2115,
          45.4947
        ]
      }
    },
    {
      "type": "Feature",
      "properties": {
        "name": "Bar Picchio",
        "category": "favorite_place",
        "subcategory": "bar"
      },
      "geometry": {
        "type": "Point",
        "coordinates": [
          9.2085,
          45.4733
        ]
      }
    },
    {
      "type": "Feature",
      "properties": {
        "name": "Caffè degli Artisti",
        "category": "favorite_place",
        "subcategory": "bar"
      },
      "geometry": {
        "type": "Point",
        "coordinates": [
          9.2168219,
          45.4771465
        ]
      }
    },
    {
      "type": "Feature",
      "properties": {
        "name": "La Belle Aurore",
        "category": "favorite_place",
        "subcategory": "bar"
      },
      "geometry": {
        "type": "Point",
        "coordinates": [
          9.2145132,
          45.4719252
        ]
      }
    },
    {
      "type": "Feature",
      "properties": {
        "name": "Giardini Indro Montanelli",
        "category": "favorite_place",
        "subcategory": "park"
      },
      "geometry": {
        "type": "Point",
        "coordinates": [
          9.2003479,
          45.4745724
        ]
      }
    },
    {
      "type": "Feature",
      "properties": {
        "name": "La Balera dell'Ortica",
        "category": "favorite_place",
        "subcategory": "music_and_social_life"
      },
      "geometry": {
        "type": "Point",
        "coordinates": [
          9.2403004,
          45.4700413
        ]
      }
    },
    {
      "type": "Feature",
      "properties": {
        "name": "MOM Café",
        "category": "favorite_place",
        "subcategory": "bar"
      },
      "geometry": {
        "type": "Point",
        "coordinates": [
          9.2054,
          45.4596
        ]
      }
    },
    {
      "type": "Feature",
      "properties": {
        "name": "Viale Molise 69",
        "category": "favorite_place",
        "subcategory": "former_workplace"
      },
      "geometry": {
        "type": "Point",
        "coordinates": [
          9.2243043,
          45.4567161
        ]
      }
    },
    {
      "type": "Feature",
      "properties": {
        "name": "Politecnico — Patio",
        "category": "favorite_place",
        "subcategory": "university"
      },
      "geometry": {
        "type": "Point",
        "coordinates": [
          9.2268098,
          45.4795274
        ]
      }
    },
    {
      "type": "Feature",
      "properties": {
        "name": "Magazzini Generali",
        "category": "favorite_place",
        "subcategory": "music"
      },
      "geometry": {
        "type": "Point",
        "coordinates": [
          9.1952615,
          45.4440969
        ]
      }
    },
    {
      "type": "Feature",
      "properties": {
        "name": "Tunnel Club",
        "category": "favorite_place",
        "subcategory": "music"
      },
      "geometry": {
        "type": "Point",
        "coordinates": [
          9.209013,
          45.4922254
        ]
      }
    },
    {
      "type": "Feature",
      "properties": {
        "name": "Consorzio Stoppani",
        "category": "favorite_place",
        "subcategory": "restaurant"
      },
      "geometry": {
        "type": "Point",
        "coordinates": [
          9.2139828,
          45.4750283
        ]
      }
    },
    {
      "type": "Feature",
      "properties": {
        "name": "Circolo Magnolia",
        "category": "favorite_place",
        "subcategory": "music"
      },
      "geometry": {
        "type": "Point",
        "coordinates": [
          9.286076,
          45.4637036
        ]
      }
    },
    {
      "type": "Feature",
      "properties": {
        "name": "Aeroporto di Milano Linate",
        "category": "favorite_place",
        "subcategory": "mobility"
      },
      "geometry": {
        "type": "Point",
        "coordinates": [
          9.2778329,
          45.444205
        ]
      }
    },
    {
      "type": "Feature",
      "properties": {
        "name": "Il Bancale",
        "category": "favorite_place",
        "subcategory": "bar"
      },
      "geometry": {
        "type": "Point",
        "coordinates": [
          9.2341738,
          45.4805141
        ]
      }
    },
    {
      "type": "Feature",
      "properties": {
        "name": "Piazza Leonardo da Vinci",
        "category": "favorite_place",
        "subcategory": "public_space"
      },
      "geometry": {
        "type": "Point",
        "coordinates": [
          9.2248047,
          45.4781421
        ]
      }
    },
    {
      "type": "Feature",
      "properties": {
        "name": "Égalité",
        "category": "favorite_place",
        "subcategory": "cafe_and_bakery"
      },
      "geometry": {
        "type": "Point",
        "coordinates": [
          9.2092562,
          45.47406
        ]
      }
    },
    {
      "type": "Feature",
      "properties": {
        "name": "Colonne di San Lorenzo",
        "category": "favorite_place",
        "subcategory": "public_space"
      },
      "geometry": {
        "type": "Point",
        "coordinates": [
          9.1810449,
          45.4582265
        ]
      }
    },
    {
      "type": "Feature",
      "properties": {
        "name": "Bar L'Angolo",
        "category": "favorite_place",
        "subcategory": "bar"
      },
      "geometry": {
        "type": "Point",
        "coordinates": [
          9.210579,
          45.4891041
        ]
      }
    },
    {
      "type": "Feature",
      "properties": {
        "name": "Bar Basso",
        "category": "favorite_place",
        "subcategory": "bar"
      },
      "geometry": {
        "type": "Point",
        "coordinates": [
          9.2175792,
          45.4767746
        ]
      }
    },
    {
      "type": "Feature",
      "properties": {
        "name": "Magutt",
        "category": "favorite_place",
        "subcategory": "bar"
      },
      "geometry": {
        "type": "Point",
        "coordinates": [
          9.2096768,
          45.4743441
        ]
      }
    },
    {
      "type": "Feature",
      "properties": {
        "name": "Parco Sempione",
        "category": "favorite_place",
        "subcategory": "park"
      },
      "geometry": {
        "type": "Point",
        "coordinates": [
          9.1769672,
          45.4729964
        ]
      }
    },
    {
      "type": "Feature",
      "properties": {
        "name": "Castello Sforzesco",
        "category": "favorite_place",
        "subcategory": "culture"
      },
      "geometry": {
        "type": "Point",
        "coordinates": [
          9.1780912,
          45.4703009
        ]
      }
    },
    {
      "type": "Feature",
      "properties": {
        "name": "Triennale Milano",
        "category": "favorite_place",
        "subcategory": "culture"
      },
      "geometry": {
        "type": "Point",
        "coordinates": [
          9.1735438,
          45.4717818
        ]
      }
    },
    {
      "type": "Feature",
      "properties": {
        "name": "Via Mauro Macchi 6",
        "category": "favorite_place",
        "subcategory": "personal_place"
      },
      "geometry": {
        "type": "Point",
        "coordinates": [
          9.2042796,
          45.481414
        ]
      }
    },
    {
      "type": "Feature",
      "properties": {
        "name": "Pacino Café",
        "category": "favorite_place",
        "subcategory": "bar"
      },
      "geometry": {
        "type": "Point",
        "coordinates": [
          9.218,
          45.4804
        ]
      }
    },
    {
      "type": "Feature",
      "properties": {
        "name": "Pizzeria Santa Maria",
        "category": "favorite_place",
        "subcategory": "restaurant",
        "verification": "address_to_be_confirmed"
      },
      "geometry": {
        "type": "Point",
        "coordinates": [
          9.2261419,
          45.5121363
        ]
      }
    },
    {
      "type": "Feature",
      "properties": {
        "name": "Piccola Ischia",
        "category": "favorite_place",
        "subcategory": "restaurant"
      },
      "geometry": {
        "type": "Point",
        "coordinates": [
          9.2173437,
          45.4817289
        ]
      }
    }
  ]
}
