{
"type": "FeatureCollection",
"name": "michelle-milano-affettiva-analyzed",
"crs": { "type": "name", "properties": { "name": "urn:ogc:def:crs:OGC:1.3:CRS84" } },
"features": [
{ "type": "Feature", "properties": { "source_index": 6, "name": "Bar Picchio", "category": "posto_del_cuore", "subcategory": "bar", "distance_from_home_m": 2262.1, "nearest_station": "P.TA VENEZIA", "metro_lines": "1", "distance_m": 297.2, "within_500m": true }, "geometry": { "type": "Point", "coordinates": [ 9.2085, 45.4733 ] } },
{ "type": "Feature", "properties": { "source_index": 7, "name": "Caffè degli Artisti", "category": "posto_del_cuore", "subcategory": "bar", "distance_from_home_m": 1531.6, "nearest_station": "LIMA", "metro_lines": "1", "distance_m": 578.5, "within_500m": false }, "geometry": { "type": "Point", "coordinates": [ 9.2168219, 45.4771465 ] } },
{ "type": "Feature", "properties": { "source_index": 8, "name": "La Belle Aurore", "category": "posto_del_cuore", "subcategory": "bar", "distance_from_home_m": 1877.9, "nearest_station": "DATEO", "metro_lines": "4", "distance_m": 534.7, "within_500m": false }, "geometry": { "type": "Point", "coordinates": [ 9.2145132, 45.4719252 ] } },
{ "type": "Feature", "properties": { "source_index": 9, "name": "Giardini Indro Montanelli", "category": "posto_del_cuore", "subcategory": "parco", "distance_from_home_m": 2848.9, "nearest_station": "P.TA VENEZIA", "metro_lines": "1", "distance_m": 367.6, "within_500m": true }, "geometry": { "type": "Point", "coordinates": [ 9.2003479, 45.4745724 ] } },
{ "type": "Feature", "properties": { "source_index": 10, "name": "La Balera dell'Ortica", "category": "posto_del_cuore", "subcategory": "musica_e_socialità", "distance_from_home_m": 1066.8, "nearest_station": "ARGONNE", "metro_lines": "4", "distance_m": 685.9, "within_500m": false }, "geometry": { "type": "Point", "coordinates": [ 9.2403004, 45.4700413 ] } },
{ "type": "Feature", "properties": { "source_index": 11, "name": "MOM Café", "category": "posto_del_cuore", "subcategory": "bar", "distance_from_home_m": 3246.2, "nearest_station": "SFORZA-POLICLINICO", "metro_lines": "4", "distance_m": 776.9, "within_500m": false }, "geometry": { "type": "Point", "coordinates": [ 9.2054, 45.4596 ] } },
{ "type": "Feature", "properties": { "source_index": 12, "name": "Viale Molise 69", "category": "posto_del_cuore", "subcategory": "ex_luogo_di_lavoro", "distance_from_home_m": 2665.4, "nearest_station": "SUSA", "metro_lines": "4", "distance_m": 1262.1, "within_500m": false }, "geometry": { "type": "Point", "coordinates": [ 9.2243043, 45.4567161 ] } },
{ "type": "Feature", "properties": { "source_index": 13, "name": "Politecnico — Patio", "category": "posto_del_cuore", "subcategory": "università", "distance_from_home_m": 734.8, "nearest_station": "PIOLA", "metro_lines": "2", "distance_m": 192.8, "within_500m": true }, "geometry": { "type": "Point", "coordinates": [ 9.2268098, 45.4795274 ] } },
{ "type": "Feature", "properties": { "source_index": 14, "name": "Magazzini Generali", "category": "posto_del_cuore", "subcategory": "musica", "distance_from_home_m": 5045.0, "nearest_station": "PORTA ROMANA", "metro_lines": "3", "distance_m": 1034.2, "within_500m": false }, "geometry": { "type": "Point", "coordinates": [ 9.1952615, 45.4440969 ] } },
{ "type": "Feature", "properties": { "source_index": 15, "name": "Tunnel Club", "category": "posto_del_cuore", "subcategory": "musica", "distance_from_home_m": 2570.6, "nearest_station": "SONDRIO", "metro_lines": "3", "distance_m": 705.8, "within_500m": false }, "geometry": { "type": "Point", "coordinates": [ 9.209013, 45.4922254 ] } },
{ "type": "Feature", "properties": { "source_index": 16, "name": "Consorzio Stoppani", "category": "posto_del_cuore", "subcategory": "ristorante", "distance_from_home_m": 1797.3, "nearest_station": "LIMA", "metro_lines": "1", "distance_m": 635.6, "within_500m": false }, "geometry": { "type": "Point", "coordinates": [ 9.2139828, 45.4750283 ] } },
{ "type": "Feature", "properties": { "source_index": 17, "name": "Circolo Magnolia", "category": "posto_del_cuore", "subcategory": "musica", "distance_from_home_m": 4261.8, "nearest_station": "LINATE AEROPORTO", "metro_lines": "4", "distance_m": 646.1, "within_500m": false }, "geometry": { "type": "Point", "coordinates": [ 9.286076, 45.4637036 ] } },
{ "type": "Feature", "properties": { "source_index": 18, "name": "Aeroporto di Milano Linate", "category": "posto_del_cuore", "subcategory": "mobilità", "distance_from_home_m": 5070.4, "nearest_station": "LINATE AEROPORTO", "metro_lines": "4", "distance_m": 2071.4, "within_500m": false }, "geometry": { "type": "Point", "coordinates": [ 9.2778329, 45.444205 ] } },
{ "type": "Feature", "properties": { "source_index": 19, "name": "Il Bancale", "category": "posto_del_cuore", "subcategory": "bar", "distance_from_home_m": 215.4, "nearest_station": "LAMBRATE FS", "metro_lines": "2", "distance_m": 417.9, "within_500m": true }, "geometry": { "type": "Point", "coordinates": [ 9.2341738, 45.4805141 ] } },
{ "type": "Feature", "properties": { "source_index": 20, "name": "Piazza Leonardo da Vinci", "category": "posto_del_cuore", "subcategory": "spazio_pubblico", "distance_from_home_m": 898.3, "nearest_station": "PIOLA", "metro_lines": "2", "distance_m": 344.8, "within_500m": true }, "geometry": { "type": "Point", "coordinates": [ 9.2248047, 45.4781421 ] } },
{ "type": "Feature", "properties": { "source_index": 21, "name": "Égalité", "category": "posto_del_cuore", "subcategory": "caffè_panetteria", "distance_from_home_m": 2182.0, "nearest_station": "P.TA VENEZIA", "metro_lines": "1", "distance_m": 331.5, "within_500m": true }, "geometry": { "type": "Point", "coordinates": [ 9.2092562, 45.47406 ] } },
{ "type": "Feature", "properties": { "source_index": 22, "name": "Colonne di San Lorenzo", "category": "posto_del_cuore", "subcategory": "spazio_pubblico", "distance_from_home_m": 4900.8, "nearest_station": "VETRA", "metro_lines": "4", "distance_m": 157.6, "within_500m": true }, "geometry": { "type": "Point", "coordinates": [ 9.1810449, 45.4582265 ] } },
{ "type": "Feature", "properties": { "source_index": 23, "name": "Bar L'Angolo", "category": "posto_del_cuore", "subcategory": "bar", "distance_from_home_m": 2284.7, "nearest_station": "CAIAZZO", "metro_lines": "2", "distance_m": 430.4, "within_500m": true }, "geometry": { "type": "Point", "coordinates": [ 9.210579, 45.4891041 ] } },
{ "type": "Feature", "properties": { "source_index": 24, "name": "Bar Basso", "category": "posto_del_cuore", "subcategory": "bar", "distance_from_home_m": 1480.1, "nearest_station": "LIMA", "metro_lines": "1", "distance_m": 650.6, "within_500m": false }, "geometry": { "type": "Point", "coordinates": [ 9.2175792, 45.4767746 ] } },
{ "type": "Feature", "properties": { "source_index": 25, "name": "Magutt", "category": "posto_del_cuore", "subcategory": "bar", "distance_from_home_m": 2142.1, "nearest_station": "P.TA VENEZIA", "metro_lines": "1", "distance_m": 362.0, "within_500m": true }, "geometry": { "type": "Point", "coordinates": [ 9.2096768, 45.4743441 ] } },
{ "type": "Feature", "properties": { "source_index": 26, "name": "Parco Sempione", "category": "posto_del_cuore", "subcategory": "parco", "distance_from_home_m": 4680.7, "nearest_station": "LANZA", "metro_lines": "2", "distance_m": 444.5, "within_500m": true }, "geometry": { "type": "Point", "coordinates": [ 9.1769672, 45.4729964 ] } },
{ "type": "Feature", "properties": { "source_index": 27, "name": "Castello Sforzesco", "category": "posto_del_cuore", "subcategory": "cultura", "distance_from_home_m": 4648.3, "nearest_station": "CADORNA FN M2", "metro_lines": "2", "distance_m": 250.6, "within_500m": true }, "geometry": { "type": "Point", "coordinates": [ 9.1780912, 45.4703009 ] } },
{ "type": "Feature", "properties": { "source_index": 28, "name": "Triennale Milano", "category": "posto_del_cuore", "subcategory": "cultura", "distance_from_home_m": 4966.1, "nearest_station": "CADORNA FN M1", "metro_lines": "1", "distance_m": 457.7, "within_500m": true }, "geometry": { "type": "Point", "coordinates": [ 9.1735438, 45.4717818 ] } },
{ "type": "Feature", "properties": { "source_index": 29, "name": "Via Mauro Macchi 6", "category": "posto_del_cuore", "subcategory": "luogo_personale", "distance_from_home_m": 2506.8, "nearest_station": "CENTRALE FS", "metro_lines": "2,3", "distance_m": 360.5, "within_500m": true }, "geometry": { "type": "Point", "coordinates": [ 9.2042796, 45.481414 ] } },
{ "type": "Feature", "properties": { "source_index": 30, "name": "Pacino Café", "category": "posto_del_cuore", "subcategory": "bar", "distance_from_home_m": 1428.7, "nearest_station": "LORETO M2", "metro_lines": "2", "distance_m": 515.9, "within_500m": false }, "geometry": { "type": "Point", "coordinates": [ 9.218, 45.4804 ] } },
{ "type": "Feature", "properties": { "source_index": 31, "name": "Pizzeria Santa Maria", "category": "posto_del_cuore", "subcategory": "ristorante", "distance_from_home_m": 3742.6, "nearest_station": "PRECOTTO", "metro_lines": "1", "distance_m": 128.9, "within_500m": true }, "geometry": { "type": "Point", "coordinates": [ 9.2261419, 45.5121363 ] } },
{ "type": "Feature", "properties": { "source_index": 32, "name": "Piccola Ischia", "category": "posto_del_cuore", "subcategory": "ristorante", "distance_from_home_m": 1500.2, "nearest_station": "LORETO M2", "metro_lines": "2", "distance_m": 361.0, "within_500m": true }, "geometry": { "type": "Point", "coordinates": [ 9.2173437, 45.4817289 ] } }
]
}
